     2.100          NAVIGATION                              RINEX VERSION / TYPE
fic2rin                                 09/25/2014 00:21:27 PGM / RUN BY / DATE
                                                            END OF HEADER
26 14  9 24 22  0  0.0 -.663059763610D-04 -.129602995003D-10  .000000000000D+00
     .770000000000D+02  .250312500000D+02  .480877173322D-08 -.106446916922D+01
     .166893005371D-05  .212367339991D-01  .288896262646D-05  .515368079185D+04
     .338400000000D+06 -.745058059692D-07 -.163820722177D+01  .463798642159D-06
     .973376999642D+00  .330625000000D+03  .129384588217D+01 -.860142971264D-08
     .571452374714D-11  .100000000000D+01  .181100000000D+04  .000000000000D+00
     .240000000000D+01  .000000000000D+00 -.605359673500D-08  .770000000000D+02
     .331206000000D+06  .400000000000D+01
27 14  9 24 22  0  0.0  .170990824699D-04  .295585778076D-11  .000000000000D+00
     .470000000000D+02  .380000000000D+02  .485234497679D-08  .506302503017D-01
     .201724469662D-05  .149146141484D-02  .417418777943D-05  .515367244148D+04
     .338400000000D+06  .223517417908D-07  .140130810944D+01 -.745058059692D-08
     .964263592009D+00  .301500000000D+03  .346258698996D+00 -.837713465557D-08
     .346443002170D-09  .100000000000D+01  .181100000000D+04  .000000000000D+00
     .240000000000D+01  .000000000000D+00  .186264514923D-08  .470000000000D+02
     .331206000000D+06  .400000000000D+01
28 14  9 24 22  0  0.0  .386672094464D-03  .261479726760D-11  .000000000000D+00
     .880000000000D+02  .265000000000D+02  .366158109098D-08  .101808851015D+01
     .136159360409D-05  .193267485593D-01  .119525939226D-04  .515368609810D+04
     .338400000000D+06 -.342726707458D-06  .423094547563D+00 -.167638063431D-06
     .987787058713D+00  .168218750000D+03 -.170816586465D+01 -.787639951223D-08
     .270011247052D-09  .100000000000D+01  .181100000000D+04  .000000000000D+00
     .240000000000D+01  .000000000000D+00 -.107102096081D-07  .880000000000D+02
     .331206000000D+06  .400000000000D+01
29 14  9 24 22  0  0.0  .562521629035D-03  .250111042988D-11  .000000000000D+00
     .510000000000D+02  .310000000000D+02  .472591113888D-08  .287560332017D+01
     .145658850670D-05  .114868720993D-02  .369735062122D-05  .515362446404D+04
     .338400000000D+06  .130385160446D-07  .145678184451D+01  .372529029846D-08
     .970219760565D+00  .310343750000D+03 -.796731420479D+00 -.829498837670D-08
     .288940606965D-09  .100000000000D+01  .181100000000D+04  .000000000000D+00
     .240000000000D+01  .000000000000D+00 -.977888703346D-08  .510000000000D+02
     .331206000000D+06  .400000000000D+01
30 14  9 24 22  0  0.0 -.657313503325D-04 -.420641299570D-11  .000000000000D+00
     .560000000000D+02 -.852500000000D+02  .451304512930D-08 -.272008044211D+01
    -.449456274509D-05  .104336149525D-02  .806897878647D-05  .515366099358D+04
     .338400000000D+06 -.298023223877D-07 -.612437111653D+00  .111758708954D-07
     .958186887781D+00  .222843750000D+03  .312976096423D+01 -.812283834882D-08
    -.481805783431D-09  .100000000000D+01  .181100000000D+04  .000000000000D+00
     .240000000000D+01  .000000000000D+00  .325962901115D-08  .560000000000D+02
     .331206000000D+06  .400000000000D+01
31 14  9 24 22  0  0.0  .331329181790D-03 -.454747350886D-12  .000000000000D+00
     .180000000000D+02 -.924062500000D+02  .416803075807D-08 -.261422447402D+01
    -.474043190479D-05  .804854859598D-02  .777095556259D-05  .515363081169D+04
     .338400000000D+06  .931322574615D-08 -.658532833782D+00  .130385160446D-06
     .977439114994D+00  .240406250000D+03 -.631425039307D+00 -.790104339589D-08
    -.563237746827D-09  .100000000000D+01  .181100000000D+04  .000000000000D+00
     .240000000000D+01  .000000000000D+00 -.130385160446D-07  .180000000000D+02
     .331206000000D+06  .400000000000D+01
32 14  9 24 22  0  0.0 -.332638621330D-03  .864019966684D-11  .000000000000D+00
     .300000000000D+02  .573125000000D+02  .465590822298D-08 -.208406058924D+01
     .285357236862D-05  .114329847274D-01  .116936862469D-04  .515365732384D+04
     .338400000000D+06 -.139698386192D-06 -.270071912363D+01 -.290572643280D-06
     .947862061094D+00  .146000000000D+03 -.817305193756D-01 -.807962226298D-08
     .307869966877D-09  .100000000000D+01  .181100000000D+04  .000000000000D+00
     .240000000000D+01  .000000000000D+00 -.325962901115D-08  .300000000000D+02
     .331206000000D+06  .400000000000D+01
28 14  9 24 21 59 44.0  .386667437851D-03  .261479726760D-11  .000000000000D+00
     .100000000000D+02  .265000000000D+02  .366158109098D-08  .101575491736D+01
     .136159360409D-05  .193267459981D-01  .119525939226D-04  .515368608475D+04
     .338384000000D+06 -.342726707458D-06  .423094679226D+00 -.167638063431D-06
     .987787029455D+00  .168218750000D+03 -.170816589098D+01 -.787639951223D-08
     .270011247052D-09  .100000000000D+01  .181100000000D+04  .000000000000D+00
     .240000000000D+01  .000000000000D+00 -.107102096081D-07  .100000000000D+02
     .332736000000D+06  .400000000000D+01
 6 14  9 24 21 59 44.0 -.385614112020D-05  .136424205266D-11  .000000000000D+00
     .120000000000D+02 -.728750000000D+02  .469948146655D-08  .100747533792D+01
    -.372529029846D-05  .537006300874D-03  .804662704468D-05  .515360884666D+04
     .338384000000D+06 -.204890966415D-07  .244896327507D+01  .130385160446D-07
     .961318196636D+00  .225687500000D+03  .212219616302D+01 -.812426697976D-08
    -.431446542909D-09  .100000000000D+01  .181100000000D+04  .000000000000D+00
     .240000000000D+01  .000000000000D+00  .465661287308D-08  .120000000000D+02
     .333006000000D+06  .400000000000D+01
15 14  9 24 21 59 44.0 -.204792246222D-03 -.227373675443D-11  .000000000000D+00
     .220000000000D+02  .476250000000D+02  .556523181424D-08 -.544877256508D+00
     .243075191975D-05  .657527602743D-02  .286102294922D-05  .515376452446D+04
     .338384000000D+06  .137835741043D-06 -.177784711486D+01  .204890966415D-07
     .935211689126D+00  .310906250000D+03  .280286051451D+00 -.886322633181D-08
     .135362781260D-09  .100000000000D+01  .181100000000D+04  .000000000000D+00
     .240000000000D+01  .000000000000D+00 -.102445483208D-07  .220000000000D+02
     .338196000000D+06  .400000000000D+01
 6 14  9 24 23 59 44.0 -.384636223316D-05  .136424205266D-11  .000000000000D+00
     .130000000000D+02 -.737812500000D+02  .465733685392D-08  .205734054998D+01
    -.396743416786D-05  .537295360118D-03  .791065394878D-05  .515360922813D+04
     .345584000000D+06 -.204890966415D-07  .244890457109D+01 -.242143869400D-07
     .961315022104D+00  .230062500000D+03  .212255225044D+01 -.815355391396D-08
    -.417517391275D-09  .100000000000D+01  .181100000000D+04  .000000000000D+00
     .240000000000D+01  .000000000000D+00  .465661287308D-08  .130000000000D+02
     .338406000000D+06  .400000000000D+01
15 14  9 24 23 59 44.0 -.204808078706D-03 -.227373675443D-11  .000000000000D+00
     .230000000000D+02  .509687500000D+02  .562952020640D-08  .505242828066D+00
     .275298953056D-05  .657588616014D-02  .246241688728D-05  .515376569366D+04
     .345584000000D+06  .763684511185D-07 -.177791103121D+01  .651925802231D-07
     .935212537619D+00  .313812500000D+03  .280298898797D+00 -.888179853399D-08
     .121076471892D-09  .100000000000D+01  .181100000000D+04  .000000000000D+00
     .240000000000D+01  .000000000000D+00 -.102445483208D-07  .230000000000D+02
     .338406000000D+06  .400000000000D+01
28 14  9 24 23 59 44.0  .386686529964D-03  .261479726760D-11  .000000000000D+00
     .110000000000D+02  .225000000000D+02  .350478884567D-08  .206599646509D+01
     .105984508991D-05  .193272302859D-01  .120569020510D-04  .515368338585D+04
     .345584000000D+06  .264495611191D-06  .423039576954D+00 -.340864062309D-06
     .987791925841D+00  .156375000000D+03 -.170824041496D+01 -.728458914666D-08
     .326085011321D-09  .100000000000D+01  .181100000000D+04  .000000000000D+00
     .240000000000D+01  .000000000000D+00 -.107102096081D-07  .110000000000D+02
     .338406000000D+06  .400000000000D+01
 1 14  9 25  0  0  0.0  .216523185372D-04  .454747350886D-12  .000000000000D+00
     .420000000000D+02 -.755312500000D+02  .467733768703D-08 -.991226004610D+00
    -.391714274883D-05  .353756046388D-02  .747479498386D-05  .515367341423D+04
     .345600000000D+06  .113621354103D-06  .245746444417D+01 -.540167093277D-07
     .961403983615D+00  .234187500000D+03  .418253652161D+00 -.819141263379D-08
    -.440018328530D-09  .100000000000D+01  .181100000000D+04  .000000000000D+00
     .240000000000D+01  .000000000000D+00  .558793544769D-08  .420000000000D+02
     .338406000000D+06  .400000000000D+01
 2 14  9 25  0  0  0.0  .520382076502D-03  .216004991671D-11  .000000000000D+00
     .114000000000D+03 -.665625000000D+02  .526771942166D-08 -.275981084383D+00
    -.333599746227D-05  .137752349256D-01  .732019543648D-05  .515368288231D+04
     .345600000000D+06 -.372529029846D-08  .242524090271D+01  .193715095520D-06
     .939936052864D+00  .230906250000D+03 -.238528687056D+01 -.866464663160D-08
    -.400730977768D-09  .100000000000D+01  .181100000000D+04  .000000000000D+00
     .240000000000D+01  .000000000000D+00 -.200234353542D-07  .114000000000D+03
     .338406000000D+06  .400000000000D+01
 4 14  9 25  0  0  0.0 -.980682671070D-06 -.341060513165D-12  .000000000000D+00
     .340000000000D+02 -.782500000000D+02  .513771400641D-08 -.187440258126D+01
    -.408105552197D-05  .111130806617D-01  .676140189171D-05  .515199316978D+04
     .345600000000D+06  .214204192162D-06  .244094732225D+01 -.782310962677D-07
     .938963646828D+00  .231781250000D+03  .107854888383D+01 -.830748889740D-08
    -.358943522867D-09  .100000000000D+01  .181100000000D+04  .000000000000D+00
     .240000000000D+01  .000000000000D+00 -.651925802231D-08  .340000000000D+02
     .338406000000D+06  .400000000000D+01
